{
  "schema": "int-temerity-real-tle-snapshot/v1",
  "source": "celestrak",
  "group": "STARLINK",
  "format": "celestrak-gp-json",
  "source_url": "https://celestrak.org/NORAD/elements/gp.php?NAME=STARLINK&FORMAT=JSON",
  "downloaded_at": "2026-07-01T09:46:17.455Z",
  "generated_at": "2026-07-01T09:46:17.588Z",
  "fingerprint": "ee699b79",
  "shell_id": "starlink-real-53.2deg-545km",
  "catalog_count": 10658,
  "shell_count": 1056,
  "selected_count": 658,
  "mean_altitude_km": 545.46,
  "mean_inclination_deg": 53.1605,
  "mean_mean_motion_rev_per_day": 15.09305652,
  "layout": {
    "planes": 47,
    "satellites_per_plane": 14,
    "selection_strategy": "target-shell-raan-clusters-even-slot-sampling",
    "raan_cluster_threshold_deg": 1.5,
    "target_inclination_deg": 53,
    "target_altitude_km": 550,
    "selected_shell_key": "53.0deg-550km",
    "target_shell_distance": 21.03
  },
  "satellites": [
    {
      "satellite_id": "P10-S13",
      "norad_id": 52353,
      "satellite_name": "STARLINK-3807",
      "cospar_id": "2022-045Y",
      "shell_id": "starlink-real-53.2deg-545km",
      "plane_id": 9,
      "slot_id": 12,
      "epoch": "2026-06-25T20:00:01.999008",
      "inclination": 53.1607,
      "raan": 73.3682,
      "eccentricity": 0.0001449,
      "argument_of_perigee": 114.57439999999997,
      "mean_anomaly": 154.66039999999998,
      "mean_motion": 15.14894397,
      "bstar": 0.0014331,
      "status": "active",
      "raw_omm": {
        "OBJECT_NAME": "STARLINK-3807",
        "OBJECT_ID": "2022-045Y",
        "EPOCH": "2026-06-25T20:00:01.999008",
        "MEAN_MOTION": 15.14894397,
        "ECCENTRICITY": 0.0001449,
        "INCLINATION": 53.1607,
        "RA_OF_ASC_NODE": 73.3682,
        "ARG_OF_PERICENTER": 114.5744,
        "MEAN_ANOMALY": 154.6604,
        "EPHEMERIS_TYPE": 0,
        "CLASSIFICATION_TYPE": "U",
        "NORAD_CAT_ID": 52353,
        "ELEMENT_SET_NO": 999,
        "REV_AT_EPOCH": 578,
        "BSTAR": 0.0014331,
        "MEAN_MOTION_DOT": 0.00026788,
        "MEAN_MOTION_DDOT": 0
      },
      "source": "celestrak",
      "source_url": "https://celestrak.org/NORAD/elements/gp.php?NAME=STARLINK&FORMAT=JSON",
      "catalog_fingerprint": "ee699b79"
    },
    {
      "satellite_id": "P10-S14",
      "norad_id": 52356,
      "satellite_name": "STARLINK-3801",
      "cospar_id": "2022-045AB",
      "shell_id": "starlink-real-53.2deg-545km",
      "plane_id": 9,
      "slot_id": 13,
      "epoch": "2026-06-25T20:00:01.999008",
      "inclination": 53.1598,
      "raan": 73.37649999999996,
      "eccentricity": 0.000071,
      "argument_of_perigee": 95.85329999999999,
      "mean_anomaly": 263.7646,
      "mean_motion": 15.15608227,
      "bstar": 0.0011493,
      "status": "active",
      "raw_omm": {
        "OBJECT_NAME": "STARLINK-3801",
        "OBJECT_ID": "2022-045AB",
        "EPOCH": "2026-06-25T20:00:01.999008",
        "MEAN_MOTION": 15.15608227,
        "ECCENTRICITY": 0.000071,
        "INCLINATION": 53.1598,
        "RA_OF_ASC_NODE": 73.3765,
        "ARG_OF_PERICENTER": 95.8533,
        "MEAN_ANOMALY": 263.7646,
        "EPHEMERIS_TYPE": 0,
        "CLASSIFICATION_TYPE": "U",
        "NORAD_CAT_ID": 52356,
        "ELEMENT_SET_NO": 999,
        "REV_AT_EPOCH": 582,
        "BSTAR": 0.0011493,
        "MEAN_MOTION_DOT": 0.0002185,
        "MEAN_MOTION_DDOT": 0
      },
      "source": "celestrak",
      "source_url": "https://celestrak.org/NORAD/elements/gp.php?NAME=STARLINK&FORMAT=JSON",
      "catalog_fingerprint": "ee699b79"
    },
    {
      "satellite_id": "P11-S01",
      "norad_id": 54008,
      "satellite_name": "STARLINK-5145",
      "cospar_id": "2022-125AW",
      "shell_id": "starlink-real-53.2deg-545km",
      "plane_id": 10,
      "slot_id": 0,
      "epoch": "2026-06-25T23:07:12.648576",
      "inclination": 53.161,
      "raan": 77.55689999999998,
      "eccentricity": 0.0001048,
      "argument_of_perigee": 81.43650000000002,
      "mean_anomaly": 278.6745000000001,
      "mean_motion": 15.08829466,
      "bstar": -0.000016844,
      "status": "active",
      "raw_omm": {
        "OBJECT_NAME": "STARLINK-5145",
        "OBJECT_ID": "2022-125AW",
        "EPOCH": "2026-06-25T23:07:12.648576",
        "MEAN_MOTION": 15.08829466,
        "ECCENTRICITY": 0.0001048,
        "INCLINATION": 53.161,
        "RA_OF_ASC_NODE": 77.5569,
        "ARG_OF_PERICENTER": 81.4365,
        "MEAN_ANOMALY": 278.6745,
        "EPHEMERIS_TYPE": 0,
        "CLASSIFICATION_TYPE": "U",
        "NORAD_CAT_ID": 54008,
        "ELEMENT_SET_NO": 999,
        "REV_AT_EPOCH": 20595,
        "BSTAR": -0.000016844,
        "MEAN_MOTION_DOT": -0.00000556,
        "MEAN_MOTION_DDOT": 0
      },
      "source": "celestrak",
      "source_url": "https://celestrak.org/NORAD/elements/gp.php?NAME=STARLINK&FORMAT=JSON",
      "catalog_fingerprint": "ee699b79"
    },
    {
      "satellite_id": "P11-S02",
      "norad_id": 54000,
      "satellite_name": "STARLINK-5088",
      "cospar_id": "2022-125AN",
      "shell_id": "starlink-real-53.2deg-545km",
      "plane_id": 10,
      "slot_id": 1,
      "epoch": "2026-06-26T00:21:28.939392",
      "inclination": 53.1595,
      "raan": 77.86939999999998,
      "eccentricity": 0.0001062,
      "argument_of_perigee": 89.19139999999999,
      "mean_anomaly": 270.9199,
      "mean_motion": 15.08834205,
      "bstar": -0.000081783,
      "status": "active",
      "raw_omm": {
        "OBJECT_NAME": "STARLINK-5088",
        "OBJECT_ID": "2022-125AN",
        "EPOCH": "2026-06-26T00:21:28.939392",
        "MEAN_MOTION": 15.08834205,
        "ECCENTRICITY": 0.0001062,
        "INCLINATION": 53.1595,
        "RA_OF_ASC_NODE": 77.8694,
        "ARG_OF_PERICENTER": 89.1914,
        "MEAN_ANOMALY": 270.9199,
        "EPHEMERIS_TYPE": 0,
        "CLASSIFICATION_TYPE": "U",
        "NORAD_CAT_ID": 54000,
        "ELEMENT_SET_NO": 999,
        "REV_AT_EPOCH": 20595,
        "BSTAR": -0.000081783,
        "MEAN_MOTION_DOT": -0.00001589,
        "MEAN_MOTION_DDOT": 0
      },
      "source": "celestrak",
      "source_url": "https://celestrak.org/NORAD/elements/gp.php?NAME=STARLINK&FORMAT=JSON",
      "catalog_fingerprint": "ee699b79"
    },
    {
      "satellite_id": "P11-S03",
      "norad_id": 53974,
      "satellite_name": "STARLINK-5159",
      "cospar_id": "2022-125L",
      "shell_id": "starlink-real-53.2deg-545km",
      "plane_id": 10,
      "slot_id": 2,
      "epoch": "2026-06-25T23:01:54.103872",
      "inclination": 53.1607,
      "raan": 77.53649999999999,
      "eccentricity": 0.0001117,
      "argument_of_perigee": 97.81790000000001,
      "mean_anomaly": 262.2939,
      "mean_motion": 15.08830515,
      "bstar": 0.000061522,
      "status": "active",
      "raw_omm": {
        "OBJECT_NAME": "STARLINK-5159",
        "OBJECT_ID": "2022-125L",
        "EPOCH": "2026-06-25T23:01:54.103872",
        "MEAN_MOTION": 15.08830515,
        "ECCENTRICITY": 0.0001117,
        "INCLINATION": 53.1607,
        "RA_OF_ASC_NODE": 77.5365,
        "ARG_OF_PERICENTER": 97.8179,
        "MEAN_ANOMALY": 262.2939,
        "EPHEMERIS_TYPE": 0,
        "CLASSIFICATION_TYPE": "U",
        "NORAD_CAT_ID": 53974,
        "ELEMENT_SET_NO": 999,
        "REV_AT_EPOCH": 20595,
        "BSTAR": 0.000061522,
        "MEAN_MOTION_DOT": 0.00000691,
        "MEAN_MOTION_DDOT": 0
      },
      "source": "celestrak",
      "source_url": "https://celestrak.org/NORAD/elements/gp.php?NAME=STARLINK&FORMAT=JSON",
      "catalog_fingerprint": "ee699b79"
    },
    {
      "satellite_id": "P11-S04",
      "norad_id": 53243,
      "satellite_name": "STARLINK-4047",
      "cospar_id": "2022-086B",
      "shell_id": "starlink-real-53.2deg-545km",
      "plane_id": 10,
      "slot_id": 3,
      "epoch": "2026-06-25T23:28:24.110976",
      "inclination": 53.16,
      "raan": 77.5419,
      "eccentricity": 0.0001136,
      "argument_of_perigee": 93.68510000000003,
      "mean_anomaly": 266.427,
      "mean_motion": 15.08843286,
      "bstar": 0.000097479,
      "status": "active",
      "raw_omm": {
        "OBJECT_NAME": "STARLINK-4047",
        "OBJECT_ID": "2022-086B",
        "EPOCH": "2026-06-25T23:28:24.110976",
        "MEAN_MOTION": 15.08843286,
        "ECCENTRICITY": 0.0001136,
        "INCLINATION": 53.16,
        "RA_OF_ASC_NODE": 77.5419,
        "ARG_OF_PERICENTER": 93.6851,
        "MEAN_ANOMALY": 266.427,
        "EPHEMERIS_TYPE": 0,
        "CLASSIFICATION_TYPE": "U",
        "NORAD_CAT_ID": 53243,
        "ELEMENT_SET_NO": 999,
        "REV_AT_EPOCH": 21761,
        "BSTAR": 0.000097479,
        "MEAN_MOTION_DOT": 0.00001264,
        "MEAN_MOTION_DDOT": 0
      },
      "source": "celestrak",
      "source_url": "https://celestrak.org/NORAD/elements/gp.php?NAME=STARLINK&FORMAT=JSON",
      "catalog_fingerprint": "ee699b79"
    }
  ]
}