[
  {
    "name": "STARLINK-3807",
    "noradId": "52353",
    "line1": "1 52353U 22045Y   26176.83335647  .00026788  00000+0  14331-2 0  9996",
    "line2": "2 52353  53.1607  73.3682 0001449 114.5744 154.6604 15.14894397  5782"
  },
  {
    "name": "STARLINK-3801",
    "noradId": "52356",
    "line1": "1 52356U 22045AB  26176.83335647  .00021850  00000+0  11493-2 0  9990",
    "line2": "2 52356  53.1598  73.3765 0000710  95.8533 263.7646 15.15608227  5822"
  },
  {
    "name": "STARLINK-4047",
    "noradId": "53243",
    "line1": "1 53243U 22086B   26176.97805684  .00001264  00000+0  97479-4 0  9996",
    "line2": "2 53243  53.1600  77.5419 0001136  93.6851 266.4270 15.08843286217619"
  },
  {
    "name": "STARLINK-5159",
    "noradId": "53974",
    "line1": "1 53974U 22125L   26176.95965398  .00000691  00000+0  61522-4 0  9991",
    "line2": "2 53974  53.1607  77.5365 0001117  97.8179 262.2939 15.08830515205956"
  },
  {
    "name": "STARLINK-5088",
    "noradId": "54000",
    "line1": "1 54000U 22125AN  26177.01491828 -.00001589  00000+0 -81783-4 0  9992",
    "line2": "2 54000  53.1595  77.8694 0001062  89.1914 270.9199 15.08834205205955"
  },
  {
    "name": "STARLINK-5145",
    "noradId": "54008",
    "line1": "1 54008U 22125AW  26176.96334084 -.00000556  00000+0 -16844-4 0  9992",
    "line2": "2 54008  53.1610  77.5569 0001048  81.4365 278.6745 15.08829466205953"
  }
]